{"type": "FeatureCollection", "features": [ {"type": "Feature", "properties": {"norad_id": 30649, "name": "FENGYUN 1C DEB", "group": "fengyun-1c-debris", "lat": -63.632445640300844, "lon": -108.68382377204111, "alt_km": 803.0946037908116, "timestamp": "2025-12-20T03:42:47.670939+00:00", "meta": {"OBJECT_NAME": "FENGYUN 1C DEB", "OBJECT_ID": "1999-025APG", "EPOCH": "2025-12-19T05:00:39.271104", "MEAN_MOTION": 14.2958435, "ECCENTRICITY": 0.0051195, "INCLINATION": 98.8097, "RA_OF_ASC_NODE": 88.5911, "ARG_OF_PERICENTER": 153.0471, "MEAN_ANOMALY": 265.8774, "EPHEMERIS_TYPE": 0, "CLASSIFICATION_TYPE": "U", "NORAD_CAT_ID": 30649, "ELEMENT_SET_NO": 999, "REV_AT_EPOCH": 97156, "BSTAR": 0.0012557, "MEAN_MOTION_DOT": 3.215e-05, "MEAN_MOTION_DDOT": 0}, "tle": {"line1": "1 30649U 99025APG 25353.20878786  .00003215  00000+0  12557-2 0  9993", "line2": "2 30649  98.8097  88.5911 0051195 153.0471 265.8774 14.29584350971567"}}, "geometry": {"type": "Point", "coordinates": [-108.68382377204111, -63.632445640300844]}}, {"type": "Feature", "properties": {"norad_id": 30650, "name": "FENGYUN 1C DEB", "group": "fengyun-1c-debris", "lat": -6.7857227746194315, "lon": -146.14371787741015, "alt_km": 799.71293557028, "timestamp": "2025-12-20T03:42:47.670949+00:00", "meta": {"OBJECT_NAME": "FENGYUN 1C DEB", "OBJECT_ID": "1999-025APH", "EPOCH": "2025-12-19T01:30:11.618208", "MEAN_MOTION": 14.1396918, "ECCENTRICITY": 0.00722969, "INCLINATION": 99.2041, "RA_OF_ASC_NODE": 33.8377, "ARG_OF_PERICENTER": 172.2165, "MEAN_ANOMALY": 218.3258, "EPHEMERIS_TYPE": 0, "CLASSIFICATION_TYPE": "U", "NORAD_CAT_ID": 30650, "ELEMENT_SET_NO": 999, "REV_AT_EPOCH": 96388, "BSTAR": 0.0012476091, "MEAN_MOTION_DOT": 2.383e-05, "MEAN_MOTION_DDOT": 0}, "tle": {"line1": "1 30650U 99025APH 25353.06263447  .00002383  00000+0  12476-2 0  9996", "line2": "2 30650  99.2041  33.8377 0072296 172.2165 218.3258 14.13969180963887"}}, "geometry": {"type": "Point", "coordinates": [-146.14371787741015, -6.7857227746194315]}}, {"type": "Feature", "properties": {"norad_id": 30652, "name": "FENGYUN 1C DEB", "group": "fengyun-1c-debris", "lat": 79.75366708617979, "lon": -31.719133830795972, "alt_km": 864.4360080867591, "timestamp": "2025-12-20T03:42:47.670959+00:00", "meta": {"OBJECT_NAME": "FENGYUN 1C DEB", "OBJECT_ID": "1999-025APJ", "EPOCH": "2025-12-19T01:51:16.914240", "MEAN_MOTION": 14.07807708, "ECCENTRICITY": 0.00074318, "INCLINATION": 98.7844, "RA_OF_ASC_NODE": 26.0379, "ARG_OF_PERICENTER": 244.8183, "MEAN_ANOMALY": 142.3944, "EPHEMERIS_TYPE": 0, "CLASSIFICATION_TYPE": "U", "NORAD_CAT_ID": 30652, "ELEMENT_SET_NO": 999, "REV_AT_EPOCH": 96783, "BSTAR": 3.7962697e-05, "MEAN_MOTION_DOT": 2.1e-07, "MEAN_MOTION_DDOT": 0}, "tle": {"line1": "1 30652U 99025APJ 25353.07727910  .00000021  00000+0  37963-4 0  9996", "line2": "2 30652  98.7844  26.0379 0007431 244.8183 142.3944 14.07807708967832"}}, "geometry": {"type": "Point", "coordinates": [-31.719133830795972, 79.75366708617979]}}, {"type": "Feature", "properties": {"norad_id": 30654, "name": "FENGYUN 1C DEB", "group": "fengyun-1c-debris", "lat": -20.78939604271328, "lon": -78.7724975454701, "alt_km": 843.2675796635358, "timestamp": "2025-12-20T03:42:47.670969+00:00", "meta": {"OBJECT_NAME": "FENGYUN 1C DEB", "OBJECT_ID": "1999-025APL", "EPOCH": "2025-12-18T17:55:20.365536", "MEAN_MOTION": 14.17122972, "ECCENTRICITY": 0.00356455, "INCLINATION": 99.2426, "RA_OF_ASC_NODE": 276.2206, "ARG_OF_PERICENTER": 79.9527, "MEAN_ANOMALY": 280.5665, "EPHEMERIS_TYPE": 0, "CLASSIFICATION_TYPE": "U", "NORAD_CAT_ID": 30654, "ELEMENT_SET_NO": 999, "REV_AT_EPOCH": 96765, "BSTAR": 0.00083430797, "MEAN_MOTION_DOT": 1.644e-05, "MEAN_MOTION_DDOT": 0}, "tle": {"line1": "1 30654U 99025APL 25352.74676349  .00001644  00000+0  83431-3 0  9992", "line2": "2 30654  99.2426 276.2206 0035645  79.9527 280.5665 14.17122972967650"}}, "geometry": {"type": "Point", "coordinates": [-78.7724975454701, -20.78939604271328]}}, {"type": "Feature", "properties": {"norad_id": 30656, "name": "FENGYUN 1C DEB", "group": "fengyun-1c-debris", "lat": 16.895340154094143, "lon": -8.5239066621315, "alt_km": 744.3221749869899, "timestamp": "2025-12-20T03:42:47.670980+00:00", "meta": {"OBJECT_NAME": "FENGYUN 1C DEB", "OBJECT_ID": "1999-025APN", "EPOCH": "2025-12-19T16:59:51.167904", "MEAN_MOTION": 14.45435506, "ECCENTRICITY": 0.0030137, "INCLINATION": 99.0174, "RA_OF_ASC_NODE": 168.2375, "ARG_OF_PERICENTER": 65.2514, "MEAN_ANOMALY": 295.1806, "EPHEMERIS_TYPE": 0, "CLASSIFICATION_TYPE": "U", "NORAD_CAT_ID": 30656, "ELEMENT_SET_NO": 999, "REV_AT_EPOCH": 97186, "BSTAR": 0.0016303, "MEAN_MOTION_DOT": 5.727e-05, "MEAN_MOTION_DDOT": 0}, "tle": {"line1": "1 30656U 99025APN 25353.70823111  .00005727  00000+0  16303-2 0  9991", "line2": "2 30656  99.0174 168.2375 0030137  65.2514 295.1806 14.45435506971860"}}, "geometry": {"type": "Point", "coordinates": [-8.5239066621315, 16.895340154094143]}}, {"type": "Feature", "properties": {"norad_id": 30657, "name": "FENGYUN 1C DEB", "group": "fengyun-1c-debris", "lat": 77.26723877899056, "lon": -44.104277184070746, "alt_km": 764.3563760243751, "timestamp": "2025-12-20T03:42:47.670990+00:00", "meta": {"OBJECT_NAME": "FENGYUN 1C DEB", "OBJECT_ID": "1999-025APP", "EPOCH": "2025-12-19T05:41:15.364032", "MEAN_MOTION": 14.38674408, "ECCENTRICITY": 0.0016426, "INCLINATION": 98.8347, "RA_OF_ASC_NODE": 91.4556, "ARG_OF_PERICENTER": 323.2869, "MEAN_ANOMALY": 65.3142, "EPHEMERIS_TYPE": 0, "CLASSIFICATION_TYPE": "U", "NORAD_CAT_ID": 30657, "ELEMENT_SET_NO": 999, "REV_AT_EPOCH": 97326, "BSTAR": 0.001503, "MEAN_MOTION_DOT": 4.571e-05, "MEAN_MOTION_DDOT": 0}, "tle": {"line1": "1 30657U 99025APP 25353.23698338  .00004571  00000+0  15030-2 0  9993", "line2": "2 30657  98.8347  91.4556 0016426 323.2869  65.3142 14.38674408973267"}}, "geometry": {"type": "Point", "coordinates": [-44.104277184070746, 77.26723877899056]}}, {"type": "Feature", "properties": {"norad_id": 30658, "name": "FENGYUN 1C DEB", "group": "fengyun-1c-debris", "lat": 46.12151590192939, "lon": 17.001630060709335, "alt_km": 1061.0849213579077, "timestamp": "2025-12-20T03:42:47.670999+00:00", "meta": {"OBJECT_NAME": "FENGYUN 1C DEB", "OBJECT_ID": "1999-025APQ", "EPOCH": "2025-12-18T13:23:50.214912", "MEAN_MOTION": 13.87228138, "ECCENTRICITY": 0.01842986, "INCLINATION": 98.4389, "RA_OF_ASC_NODE": 24.4397, "ARG_OF_PERICENTER": 211.7114, "MEAN_ANOMALY": 147.2839, "EPHEMERIS_TYPE": 0, "CLASSIFICATION_TYPE": "U", "NORAD_CAT_ID": 30658, "ELEMENT_SET_NO": 999, "REV_AT_EPOCH": 94765, "BSTAR": 0.001331943, "MEAN_MOTION_DOT": 1.751e-05, "MEAN_MOTION_DDOT": 0}, "tle": {"line1": "1 30658U 99025APQ 25352.55822008  .00001751  00000+0  13319-2 0  9996", "line2": "2 30658  98.4389  24.4397 0184298 211.7114 147.2839 13.87228138947651"}}, "geometry": {"type": "Point", "coordinates": [17.001630060709335, 46.12151590192939]}}, {"type": "Feature", "properties": {"norad_id": 30660, "name": "FENGYUN 1C DEB", "group": "fengyun-1c-debris", "lat": -61.57245605136266, "lon": 106.13698322393027, "alt_km": 519.465299584981, "timestamp": "2025-12-20T03:42:47.671010+00:00", "meta": {"OBJECT_NAME": "FENGYUN 1C DEB", "OBJECT_ID": "1999-025APS", "EPOCH": "2025-12-19T05:31:15.898368", "MEAN_MOTION": 14.87610731, "ECCENTRICITY": 0.0136585, "INCLINATION": 98.1396, "RA_OF_ASC_NODE": 89.8573, "ARG_OF_PERICENTER": 313.222, "MEAN_ANOMALY": 75.5216, "EPHEMERIS_TYPE": 0, "CLASSIFICATION_TYPE": "U", "NORAD_CAT_ID": 30660, "ELEMENT_SET_NO": 999, "REV_AT_EPOCH": 881, "BSTAR": 0.00045224, "MEAN_MOTION_DOT": 4.815e-05, "MEAN_MOTION_DDOT": 0}, "tle": {"line1": "1 30660U 99025APS 25353.23004512  .00004815  00000+0  45224-3 0  9992", "line2": "2 30660  98.1396  89.8573 0136585 313.2220  75.5216 14.87610731  8815"}}, "geometry": {"type": "Point", "coordinates": [106.13698322393027, -61.57245605136266]}}, {"type": "Feature", "properties": {"norad_id": 30661, "name": "FENGYUN 1C DEB", "group": "fengyun-1c-debris", "lat": 16.902052741895577, "lon": 167.4681167204925, "alt_km": 718.7469986684373, "timestamp": "2025-12-20T03:42:47.671020+00:00", "meta": {"OBJECT_NAME": "FENGYUN 1C DEB", "OBJECT_ID": "1999-025APT", "EPOCH": "2025-12-19T10:44:17.431008", "MEAN_MOTION": 14.21146014, "ECCENTRICITY": 0.0144508, "INCLINATION": 99.4871, "RA_OF_ASC_NODE": 169.6213, "ARG_OF_PERICENTER": 26.7747, "MEAN_ANOMALY": 334.0794, "EPHEMERIS_TYPE": 0, "CLASSIFICATION_TYPE": "U", "NORAD_CAT_ID": 30661, "ELEMENT_SET_NO": 999, "REV_AT_EPOCH": 97997, "BSTAR": 9.1614e-05, "MEAN_MOTION_DOT": 1.71e-06, "MEAN_MOTION_DDOT": 0}, "tle": {"line1": "1 30661U 99025APT 25353.44742397  .00000171  00000+0  91614-4 0  9992", "line2": "2 30661  99.4871 169.6213 0144508  26.7747 334.0794 14.21146014979974"}}, "geometry": {"type": "Point", "coordinates": [167.4681167204925, 16.902052741895577]}}, {"type": "Feature", "properties": {"norad_id": 30662, "name": "FENGYUN 1C DEB", "group": "fengyun-1c-debris", "lat": 77.8709866529864, "lon": -81.47995804754444, "alt_km": 830.9761460643485, "timestamp": "2025-12-20T03:42:47.671030+00:00", "meta": {"OBJECT_NAME": "FENGYUN 1C DEB", "OBJECT_ID": "1999-025APU", "EPOCH": "2025-12-17T02:47:53.975616", "MEAN_MOTION": 14.2238731, "ECCENTRICITY": 0.00333112, "INCLINATION": 99.053, "RA_OF_ASC_NODE": 47.5109, "ARG_OF_PERICENTER": 258.3821, "MEAN_ANOMALY": 131.5027, "EPHEMERIS_TYPE": 0, "CLASSIFICATION_TYPE": "U", "NORAD_CAT_ID": 30662, "ELEMENT_SET_NO": 999, "REV_AT_EPOCH": 96701, "BSTAR": 0.0012023141, "MEAN_MOTION_DOT": 2.645e-05, "MEAN_MOTION_DDOT": 0}, "tle": {"line1": "1 30662U 99025APU 25351.11659694  .00002645  00000+0  12023-2 0  9995", "line2": "2 30662  99.0530  47.5109 0033311 258.3821 131.5027 14.22387310967014"}}, "geometry": {"type": "Point", "coordinates": [-81.47995804754444, 77.8709866529864]}}]}